[{"OBJECT_NAME":"STARLINK-31321","OBJECT_ID":"2024-020M","EPOCH":"2026-03-09T21:40:40.314432","MEAN_MOTION":15.30180359,"ECCENTRICITY":0.00011827,"INCLINATION":53.161,"RA_OF_ASC_NODE":321.4395,"ARG_OF_PERICENTER":101.9416,"MEAN_ANOMALY":258.1718,"EPHEMERIS_TYPE":0,"CLASSIFICATION_TYPE":"U","NORAD_CAT_ID":58887,"ELEMENT_SET_NO":999,"REV_AT_EPOCH":11926,"BSTAR":8.8560795e-5,"MEAN_MOTION_DOT":2.263e-5,"MEAN_MOTION_DDOT":0},{"OBJECT_NAME":"OBJECT L","OBJECT_ID":"2024-024L","EPOCH":"2026-03-09T22:36:05.522976","MEAN_MOTION":15.29373491,"ECCENTRICITY":0.00073185,"INCLINATION":97.3169,"RA_OF_ASC_NODE":137.7038,"ARG_OF_PERICENTER":167.6369,"MEAN_ANOMALY":192.5052,"EPHEMERIS_TYPE":0,"CLASSIFICATION_TYPE":"U","NORAD_CAT_ID":58927,"ELEMENT_SET_NO":999,"REV_AT_EPOCH":9318,"BSTAR":0.00043092344,"MEAN_MOTION_DOT":0.00012217,"MEAN_MOTION_DDOT":0}]
